stk.v.4.3 

BEGIN Ephemeris 
 
NumberOfEphemerisPoints		146 
ScenarioEpoch	    2 Jan 2020 12:38:16.856743097 
InterpolationMethod		Lagrange 
InterpolationOrder		5 
CentralBody				Earth 
CoordinateSystem			TEME 
CoordinateSystemEpoch	  2 Jan 2020 12:38:16.856743097 
DistanceUnit			Kilometers 
 
EphemerisTimePosVel 
 
       0.00000000   -6864.95325213   -1921.31792242       0.04174368  0.134058250 -0.442944763  7.464983103
 END Ephemeris 
